{
  "type": "FeatureCollection",
  "features": [
    {
      "type": "Feature",
      "properties": {
        "norad_id": 67046,
        "name": "STARLINK-35721",
        "group": "last-30-days",
        "lat": 13.332201938950845,
        "lon": -64.63292873844898,
        "alt_km": 312.05279608649744,
        "timestamp": "2025-12-21T05:44:50.294277+00:00",
        "meta_object_name": "STARLINK-35721",
        "meta_object_id": "2025-294S",
        "meta_epoch": "2025-12-20T22:00:01.999584",
        "meta_mean_motion": 15.87033905,
        "meta_eccentricity": 0.00016494,
        "meta_inclination": 43.0003,
        "meta_ra_of_asc_node": 132.0925,
        "meta_arg_of_pericenter": 283.2045,
        "meta_mean_anomaly": 191.1292,
        "meta_ephemeris_type": 0,
        "meta_classification_type": "U",
        "meta_norad_cat_id": 67046,
        "meta_element_set_no": 999,
        "meta_rev_at_epoch": 162,
        "meta_bstar": -0.0060522929,
        "meta_mean_motion_dot": -0.01414455,
        "meta_mean_motion_ddot": 0,
        "tle_line1": "1 67046U 25294S   25354.91668981 -.01414455  00000+0 -60523-2 0  9995",
        "tle_line2": "2 67046  43.0003 132.0925 0001649 283.2045 191.1292 15.87033905  1626"
      },
      "geometry": {
        "type": "Point",
        "coordinates": [
          -64.63292873844898,
          13.332201938950845
        ]
      }
    },
    {
      "type": "Feature",
      "properties": {
        "norad_id": 67047,
        "name": "STARLINK-35779",
        "group": "last-30-days",
        "lat": 11.650135296370804,
        "lon": -62.689198753720575,
        "alt_km": 312.2011400679394,
        "timestamp": "2025-12-21T05:44:50.294287+00:00",
        "meta_object_name": "STARLINK-35779",
        "meta_object_id": "2025-294T",
        "meta_epoch": "2025-12-20T22:00:01.999584",
        "meta_mean_motion": 15.87059524,
        "meta_eccentricity": 0.00017171,
        "meta_inclination": 43.0001,
        "meta_ra_of_asc_node": 132.0865,
        "meta_arg_of_pericenter": 281.4821,
        "meta_mean_anomaly": 195.3669,
        "meta_ephemeris_type": 0,
        "meta_classification_type": "U",
        "meta_norad_cat_id": 67047,
        "meta_element_set_no": 999,
        "meta_rev_at_epoch": 143,
        "meta_bstar": -0.0060931572,
        "meta_mean_motion_dot": -0.01424378,
        "meta_mean_motion_ddot": 0,
        "tle_line1": "1 67047U 25294T   25354.91668981 -.01424378  00000+0 -60932-2 0  9995",
        "tle_line2": "2 67047  43.0001 132.0865 0001717 281.4821 195.3669 15.87059524  1434"
      },
      "geometry": {
        "type": "Point",
        "coordinates": [
          -62.689198753720575,
          11.650135296370804
        ]
      }
    },
    {
      "type": "Feature",
      "properties": {
        "norad_id": 67048,
        "name": "STARLINK-35905",
        "group": "last-30-days",
        "lat": 10.361961124766964,
        "lon": -61.226924560659285,
        "alt_km": 312.26533746192126,
        "timestamp": "2025-12-21T05:44:50.294297+00:00",
        "meta_object_name": "STARLINK-35905",
        "meta_object_id": "2025-294U",
        "meta_epoch": "2025-12-20T22:00:01.999584",
        "meta_mean_motion": 15.87098854,
        "meta_eccentricity": 0.00016282,
        "meta_inclination": 43.0002,
        "meta_ra_of_asc_node": 132.0817,
        "meta_arg_of_pericenter": 282.9902,
        "meta_mean_anomaly": 195.7472,
        "meta_ephemeris_type": 0,
        "meta_classification_type": "U",
        "meta_norad_cat_id": 67048,
        "meta_element_set_no": 999,
        "meta_rev_at_epoch": 154,
        "meta_bstar": -0.0061209029,
        "meta_mean_motion_dot": -0.01432362,
        "meta_mean_motion_ddot": 0,
        "tle_line1": "1 67048U 25294U   25354.91668981 -.01432362  00000+0 -61209-2 0  9996",
        "tle_line2": "2 67048  43.0002 132.0817 0001628 282.9902 195.7472 15.87098854  1547"
      },
      "geometry": {
        "type": "Point",
        "coordinates": [
          -61.226924560659285,
          10.361961124766964
        ]
      }
    },
    {
      "type": "Feature",
      "properties": {
        "norad_id": 67049,
        "name": "STARLINK-35877",
        "group": "last-30-days",
        "lat": 8.731389489706887,
        "lon": -59.40346315259353,
        "alt_km": 312.3694333033254,
        "timestamp": "2025-12-21T05:44:50.294309+00:00",
        "meta_object_name": "STARLINK-35877",
        "meta_object_id": "2025-294V",
        "meta_epoch": "2025-12-20T22:00:01.999584",
        "meta_mean_motion": 15.87126357,
        "meta_eccentricity": 0.00016206,
        "meta_inclination": 43.0005,
        "meta_ra_of_asc_node": 132.0755,
        "meta_arg_of_pericenter": 281.486,
        "meta_mean_anomaly": 199.6554,
        "meta_ephemeris_type": 0,
        "meta_classification_type": "U",
        "meta_norad_cat_id": 67049,
        "meta_element_set_no": 999,
        "meta_rev_at_epoch": 162,
        "meta_bstar": -0.006158953,
        "meta_mean_motion_dot": -0.01441776,
        "meta_mean_motion_ddot": 0,
        "tle_line1": "1 67049U 25294V   25354.91668981 -.01441776  00000+0 -61590-2 0  9999",
        "tle_line2": "2 67049  43.0005 132.0755 0001620 281.4860 199.6554 15.87126357  1624"
      },
      "geometry": {
        "type": "Point",
        "coordinates": [
          -59.40346315259353,
          8.731389489706887
        ]
      }
    },
    {
      "type": "Feature",
      "properties": {
        "norad_id": 67050,
        "name": "STARLINK-36078",
        "group": "last-30-days",
        "lat": 7.073434042793806,
        "lon": -57.57547299036492,
        "alt_km": 312.48387948619256,
        "timestamp": "2025-12-21T05:44:50.294319+00:00",
        "meta_object_name": "STARLINK-36078",
        "meta_object_id": "2025-294W",
        "meta_epoch": "2025-12-20T22:00:01.999584",
        "meta_mean_motion": 15.87154587,
        "meta_eccentricity": 0.00015472,
        "meta_inclination": 43.0004,
        "meta_ra_of_asc_node": 132.0694,
        "meta_arg_of_pericenter": 281.235,
        "meta_mean_anomaly": 202.3375,
        "meta_ephemeris_type": 0,
        "meta_classification_type": "U",
        "meta_norad_cat_id": 67050,
        "meta_element_set_no": 999,
        "meta_rev_at_epoch": 154,
        "meta_bstar": -0.0062100838,
        "meta_mean_motion_dot": -0.01453827,
        "meta_mean_motion_ddot": 0,
        "tle_line1": "1 67050U 25294W   25354.91668981 -.01453827  00000+0 -62101-2 0  9990",
        "tle_line2": "2 67050  43.0004 132.0694 0001547 281.2350 202.3375 15.87154587  1547"
      },
      "geometry": {
        "type": "Point",
        "coordinates": [
          -57.57547299036492,
          7.073434042793806
        ]
      }
    },
    {
      "type": "Feature",
      "properties": {
        "norad_id": 67051,
        "name": "STARLINK-35706",
        "group": "last-30-days",
        "lat": 5.402843351351736,
        "lon": -55.754800251769225,
        "alt_km": 312.62368011533636,
        "timestamp": "2025-12-21T05:44:50.294329+00:00",
        "meta_object_name": "STARLINK-35706",
        "meta_object_id": "2025-294X",
        "meta_epoch": "2025-12-20T22:00:01.999584",
        "meta_mean_motion": 15.87188518,
        "meta_eccentricity": 0.00015614,
        "meta_inclination": 43.0004,
        "meta_ra_of_asc_node": 132.0631,
        "meta_arg_of_pericenter": 280.3861,
        "meta_mean_anomaly": 205.627,
        "meta_ephemeris_type": 0,
        "meta_classification_type": "U",
        "meta_norad_cat_id": 67051,
        "meta_element_set_no": 999,
        "meta_rev_at_epoch": 162,
        "meta_bstar": -0.0063290285,
        "meta_mean_motion_dot": -0.01511033,
        "meta_mean_motion_ddot": 0,
        "tle_line1": "1 67051U 25294X   25354.91668981 -.01511033  00000+0 -63290-2 0  9995",
        "tle_line2": "2 67051  43.0004 132.0631 0001561 280.3861 205.6270 15.87188518  1622"
      },
      "geometry": {
        "type": "Point",
        "coordinates": [
          -55.754800251769225,
          5.402843351351736
        ]
      }
    },
    {
      "type": "Feature",
      "properties": {
        "norad_id": 67052,
        "name": "STARLINK-35720",
        "group": "last-30-days",
        "lat": 4.056407379185643,
        "lon": -54.298913227414985,
        "alt_km": 312.79727750411166,
        "timestamp": "2025-12-21T05:44:50.294339+00:00",
        "meta_object_name": "STARLINK-35720",
        "meta_object_id": "2025-294Y",
        "meta_epoch": "2025-12-20T22:00:01.999584",
        "meta_mean_motion": 15.87233919,
        "meta_eccentricity": 0.0001581,
        "meta_inclination": 43.0004,
        "meta_ra_of_asc_node": 132.0584,
        "meta_arg_of_pericenter": 284.6385,
        "meta_mean_anomaly": 203.3151,
        "meta_ephemeris_type": 0,
        "meta_classification_type": "U",
        "meta_norad_cat_id": 67052,
        "meta_element_set_no": 999,
        "meta_rev_at_epoch": 161,
        "meta_bstar": -0.0064290516,
        "meta_mean_motion_dot": -0.01535164,
        "meta_mean_motion_ddot": 0,
        "tle_line1": "1 67052U 25294Y   25354.91668981 -.01535164  00000+0 -64291-2 0  9999",
        "tle_line2": "2 67052  43.0004 132.0584 0001581 284.6385 203.3151 15.87233919  1618"
      },
      "geometry": {
        "type": "Point",
        "coordinates": [
          -54.298913227414985,
          4.056407379185643
        ]
      }
    }
  ]
}